H1 CPF 01  gfz 2021 12 09 13  8432 tandemx   
H2 1003001  6202 36605    2021 12 09 12 59 42 2021 12 14 00 00 42   120 1 1  0 0 0
H9
10 0 59561  15822.000000  0    5286182.026   2882253.710   3338713.353
10 0 59561  15942.000000  0    5714445.674   2898266.026   2522371.386
10 0 59561  16062.000000  0    6042569.248   2856981.331   1661610.668
10 0 59561  16182.000000  0    6263842.134   2760936.211    771591.261
10 0 59561  16302.000000  0    6373497.079   2613734.125   -132011.537
10 0 59561  16422.000000  0    6368812.109   2419945.744  -1033292.870
10 0 59561  16542.000000  0    6249170.036   2184989.185  -1916406.074
10 0 59561  16662.000000  0    6016078.897   1914995.944  -2765847.839
10 0 59561  16782.000000  0    5673148.527   1616662.346  -3566737.122
10 0 59561  16902.000000  0    5226025.350   1297091.469  -4305078.537
10 0 59561  17022.000000  0    4682286.714    963629.934  -4968005.791
10 0 59561  17142.000000  0    4051300.198    623705.005  -5543999.483
10 0 59561  17262.000000  0    3344052.520    284664.708  -6023078.554
10 0 59561  17382.000000  0    2572950.327    -46375.457  -6396963.110
10 0 59561  17502.000000  0    1751597.933   -362676.677  -6659205.565
10 0 59561  17622.000000  0     894557.918   -658009.188  -6805291.343
10 0 59561  17742.000000  0      17095.036   -926770.929  -6832709.141
10 0 59561  17862.000000  0    -865090.532  -1164089.961  -6740987.740
10 0 59561  17982.000000  0   -1736136.781  -1365910.264  -6531703.674
10 0 59561  18102.000000  0   -2580299.045  -1529059.760  -6208457.098
10 0 59561  18222.000000  0   -3382227.952  -1651299.205  -5776815.432
10 0 59561  18342.000000  0   -4127244.603  -1731352.346  -5244228.895
10 0 59561  18462.000000  0   -4801611.058  -1768916.279  -4619913.702
10 0 59561  18582.000000  0   -5392787.806  -1764651.144  -3914703.518
10 0 59561  18702.000000  0   -5889674.913  -1720149.696  -3140871.739
10 0 59561  18822.000000  0   -6282831.190  -1637886.774  -2311924.541
10 0 59561  18942.000000  0   -6564665.107  -1521149.039  -1442368.414
10 0 59561  19062.000000  0   -6729592.900  -1373946.817   -547455.851
10 0 59561  19182.000000  0   -6774159.186  -1200909.482    357086.524
10 0 59561  19302.000000  0   -6697115.780  -1007166.434   1255341.481
10 0 59561  19422.000000  0   -6499455.987   -798217.844   2131490.076
10 0 59561  19542.000000  0   -6184403.623   -579797.864   2970099.270
10 0 59561  19662.000000  0   -5757357.146   -357733.598   3756402.111
10 0 59561  19782.000000  0   -5225789.287   -137803.596   4476564.217
10 0 59561  19902.000000  0   -4599105.826     74399.548   5117929.420
10 0 59561  20022.000000  0   -3888469.554    273600.544   5669240.880
10 0 59561  20142.000000  0   -3106592.502    454963.129   6120836.190
10 0 59561  20262.000000  0   -2267499.912    614198.917   6464811.777
10 0 59561  20382.000000  0   -1386272.807    747661.678   6695155.764
10 0 59561  20502.000000  0    -478772.709    852426.130   6807846.808
10 0 59561  20622.000000  0     438644.449    926348.824   6800918.912
10 0 59561  20742.000000  0    1349422.077    968110.669   6674493.331
10 0 59561  20862.000000  0    2237100.585    977240.794   6430776.773
10 0 59561  20982.000000  0    3085614.050    954120.687   6074025.706
10 0 59561  21102.000000  0    3879582.734    899968.747   5610477.123
10 0 59561  21222.000000  0    4604594.803    816805.807   5048244.406
10 0 59561  21342.000000  0    5247472.975    707401.410   4397182.553
10 0 59561  21462.000000  0    5796523.521    575202.495   3668721.183
10 0 59561  21582.000000  0    6241759.401    424246.376   2875665.546
10 0 59561  21702.000000  0    6575090.952    259058.928   2031970.302
10 0 59561  21822.000000  0    6790482.585     84539.575   1152492.123
10 0 59561  21942.000000  0    6884069.595    -94162.085    252721.522
10 0 59561  22062.000000  0    6854231.848   -271776.516   -651497.861
10 0 59561  22182.000000  0    6701621.596   -443047.786  -1544257.880
10 0 59561  22302.000000  0    6429145.359   -602866.518  -2409874.260
10 0 59561  22422.000000  0    6041900.310   -746399.041  -3233168.648
10 0 59561  22542.000000  0    5547068.212   -869209.583  -3999738.384
10 0 59561  22662.000000  0    4953769.514   -967371.954  -4696208.618
10 0 59561  22782.000000  0    4272882.849  -1037568.034  -5310461.398
10 0 59561  22902.000000  0    3516835.166  -1077172.129  -5831839.572
10 0 59561  23022.000000  0    2699366.201  -1084319.538  -6251322.032
10 0 59561  23142.000000  0    1835273.897  -1057956.560  -6561668.348
10 0 59561  23262.000000  0     940145.668   -997872.141  -6757532.459
10 0 59561  23382.000000  0      30079.970   -904712.088  -6835545.429
10 0 59561  23502.000000  0    -878598.130   -779973.725  -6794366.649
10 0 59561  23622.000000  0   -1769622.614   -625982.405  -6634704.518
10 0 59561  23742.000000  0   -2627071.522   -445849.167  -6359305.125
10 0 59561  23862.000000  0   -3435644.558   -243411.096  -5972908.988
10 0 59561  23982.000000  0   -4180931.965    -23154.590  -5482179.540
10 0 59561  24102.000000  0   -4849672.435    209877.421  -4895598.902
10 0 59561  24222.000000  0   -5429992.546    450192.194  -4223333.078
10 0 59561  24342.000000  0   -5911626.530    691967.419  -3477067.344
10 0 59561  24462.000000  0   -6286109.286    929182.357  -2669811.389
10 0 59561  24582.000000  0   -6546937.877   1155756.730  -1815677.262
10 0 59561  24702.000000  0   -6689697.316   1365694.165   -929634.291
10 0 59561  24822.000000  0   -6712147.890   1553227.362    -27242.982
10 0 59561  24942.000000  0   -6614266.719   1712959.440    875625.338
10 0 59561  25062.000000  0   -6398246.021   1839999.965   1763074.765
10 0 59561  25182.000000  0   -6068447.304   1930091.535   2619473.746
10 0 59561  25302.000000  0   -5631311.322   1979723.004   3429739.459
10 0 59561  25422.000000  0   -5095225.830   1986225.885   4179610.711
10 0 59561  25542.000000  0   -4470355.713   1947852.296   4855902.467
10 0 59561  25662.000000  0   -3768441.178   1863832.883   5446737.806
10 0 59561  25782.000000  0   -3002569.329   1734413.667   5941754.639
10 0 59561  25902.000000  0   -2186922.376   1560871.290   6332284.693
10 0 59561  26022.000000  0   -1336507.765   1345505.309   6611499.575
10 0 59561  26142.000000  0    -466878.006   1091608.424   6774522.931
10 0 59561  26262.000000  0     406154.171    803415.961   6818509.394
10 0 59561  26382.000000  0    1266802.376    486034.784   6742691.024
10 0 59561  26502.000000  0    2099590.679    145353.249   6548389.837
10 0 59561  26622.000000  0    2889630.897   -212067.089   6238997.134
10 0 59561  26742.000000  0    3622890.039   -579116.650   5819919.010
10 0 59561  26862.000000  0    4286442.726   -948277.256   5298486.912
10 0 59561  26982.000000  0    4868703.776  -1311774.450   4683835.513
10 0 59561  27102.000000  0    5359637.741  -1661738.923   3986748.446
10 0 59561  27222.000000  0    5750940.984  -1990374.125   3219472.771
10 0 59561  27342.000000  0    6036191.317  -2290127.430   2395504.576
10 0 59561  27462.000000  0    6210960.973  -2553859.665   1529349.630
10 0 59561  27582.000000  0    6272891.286  -2775008.792    636263.727
10 0 59561  27702.000000  0    6221725.752  -2947744.394   -268023.825
10 0 59561  27822.000000  0    6059300.544  -3067108.177  -1167595.843
10 0 59561  27942.000000  0    5789491.818  -3129136.844  -2046637.430
10 0 59561  28062.000000  0    5418121.566  -3130963.953  -2889721.040
10 0 59561  28182.000000  0    4952826.901  -3070898.878  -3682082.160
10 0 59561  28302.000000  0    4402895.016  -2948481.600  -4409879.338
10 0 59561  28422.000000  0    3779068.797  -2764512.195  -5060434.562
10 0 59561  28542.000000  0    3093327.328  -2521053.585  -5622447.906
10 0 59561  28662.000000  0    2358649.913  -2221409.469  -6086183.408
10 0 59561  28782.000000  0    1588768.341  -1870079.053  -6443627.844
10 0 59561  28902.000000  0     797908.879  -1472687.071  -6688619.445
10 0 59561  29022.000000  0        531.159  -1035892.242  -6816942.897
10 0 59561  29142.000000  0    -788931.388   -567276.462  -6826393.378
10 0 59561  29262.000000  0   -1556326.416    -75215.928  -6716810.017
10 0 59561  29382.000000  0   -2288030.749    431265.157  -6490077.736
10 0 59561  29502.000000  0   -2971186.365    942655.425  -6150097.742
10 0 59561  29622.000000  0   -3593922.212   1449130.084  -5702728.217
10 0 59561  29742.000000  0   -4145560.719   1940735.104  -5155694.595
10 0 59561  29862.000000  0   -4616804.889   2407580.099  -4518467.896
10 0 59561  29982.000000  0   -4999901.152   2840036.216  -3802110.894
10 0 59561  30102.000000  0   -5288774.588   3228933.398  -3019095.494
10 0 59561  30222.000000  0   -5479135.210   3565755.142  -2183093.058
10 0 59561  30342.000000  0   -5568550.246   3842825.727  -1308738.661
10 0 59561  30462.000000  0   -5556480.952   4053483.965   -411373.743
10 0 59561  30582.000000  0   -5444281.690   4192239.733    493227.556
10 0 59561  30702.000000  0   -5235160.787   4254908.986   1389144.190
10 0 59561  30822.000000  0   -4934102.046   4238721.655   2260597.938
10 0 59561  30942.000000  0   -4547750.737   4142401.082   3092239.573
10 0 59561  31062.000000  0   -4084267.183   3966214.067   3869426.750
10 0 59561  31182.000000  0   -3553151.214   3711987.860   4578487.169
10 0 59561  31302.000000  0   -2965043.003   3383095.620   5206961.424
10 0 59561  31422.000000  0   -2331504.116   2984410.402   5743821.515
10 0 59561  31542.000000  0   -1664784.993   2522229.455   6179661.214
10 0 59561  31662.000000  0    -977583.277   2004170.228   6506855.481
10 0 59561  31782.000000  0    -282800.110   1439040.886   6719685.864
10 0 59561  31902.000000  0     406701.522    836688.487   6814435.289
10 0 59561  32022.000000  0    1078334.701    207826.560   6789448.592
10 0 59561  32142.000000  0    1720017.135   -436154.682   6645159.652
10 0 59561  32262.000000  0    2320387.788  -1083394.102   6384085.138
99
